{"epoch":1784902576,"count":18312,"objects":[{"id":"39766","name":"ALOS 2","type":"PAYLOAD","l1":"1 39766U 14029A   26205.26960712  .00000913  00000-0  12914-3 0  9998","l2":"2 39766  97.9223 301.9035 0001596  94.6883 265.4511 14.79475356657064"},{"id":"40010","name":"KAZEOSAT 2","type":"PAYLOAD","l1":"1 40010U 14033A   26205.27773480 -.00000093  00000-0 -49780-5 0  9996","l2":"2 40010  97.5402  42.9279 0008097 186.6091 173.5019 14.85506120654465"},{"id":"40011","name":"HODOYOSHI 4","type":"PAYLOAD","l1":"1 40011U 14033B   26205.28413983  .00001542  00000-0  17201-3 0  9996","l2":"2 40011  97.5471  28.3196 0023477 178.5545 181.5745 14.88208025654327"},{"id":"40013","name":"DEIMOS 2","type":"PAYLOAD","l1":"1 40013U 14033D   26205.29350519  .00000745  00000-0  75377-4 0  9997","l2":"2 40013  97.5786  78.4710 0001480 104.0521 256.0864 14.93814485643264"},{"id":"40015","name":"HODOYOSHI 3","type":"PAYLOAD","l1":"1 40015U 14033F   26204.96486747  .00001139  00000-0  13708-3 0  9992","l2":"2 40015  97.6455   6.5344 0031627 231.7763 128.0605 14.85452127653081"},{"id":"40053","name":"SPOT 7","type":"PAYLOAD","l1":"1 40053U 14034A   26205.30224770  .00000487  00000-0  10859-3 0  9999","l2":"2 40053  98.0610 266.8338 0001699  94.2337 265.9058 14.60987046642559"},{"id":"40072","name":"SKYSAT 2","type":"PAYLOAD","l1":"1 40072U 14037D   26204.83918674  .00001208  00000-0  13790-3 0  9992","l2":"2 40072  98.3859 165.9005 0006150 146.8472 213.3130 14.88108065651418"},{"id":"40115","name":"WORLDVIEW 3","type":"PAYLOAD","l1":"1 40115U 14048A   26205.29322243  .00000774  00000-0  96826-4 0  9993","l2":"2 40115  97.8550 279.6115 0001933 141.4533 218.6820 14.85075539647411"},{"id":"40118","name":"GAOFEN 2","type":"PAYLOAD","l1":"1 40118U 14049A   26205.33808442  .00001218  00000-0  16436-3 0  9994","l2":"2 40118  98.0090 269.5061 0008715 109.4182 250.7973 14.80938217644737"},{"id":"40143","name":"YAOGAN 21","type":"PAYLOAD","l1":"1 40143U 14053A   26205.32718193  .00008197  00000-0  31311-3 0  9991","l2":"2 40143  97.1461 243.9767 0006634 333.8440  26.2464 15.26852617660621"},{"id":"40275","name":"YAOGAN 22","type":"PAYLOAD","l1":"1 40275U 14063A   26205.29858929  .00000000  00000-0  12537-3 0  9990","l2":"2 40275 100.7774 357.1959 0006914 106.5539 253.6332 13.15531868564699"},{"id":"40298","name":"ASNARO","type":"PAYLOAD","l1":"1 40298U 14070A   26205.29822422  .00007718  00000-0  36672-3 0  9991","l2":"2 40298  97.3436 280.4115 0004400  67.0938 293.0761 15.19481148649648"},{"id":"40310","name":"YAOGAN 24","type":"PAYLOAD","l1":"1 40310U 14072A   26205.29623578  .00000957  00000-0  14608-3 0  9992","l2":"2 40310  98.1533 342.9525 0015314 141.5498 218.6806 14.76128744629197"},{"id":"40336","name":"CBERS-4","type":"PAYLOAD","l1":"1 40336U 14079A   26205.32762971  .00000224  00000-0  92568-4 0  9991","l2":"2 40336  98.3514 260.9897 0000558  80.9022 279.2227 14.35518366609286"},{"id":"40362","name":"YAOGAN 26","type":"PAYLOAD","l1":"1 40362U 14088A   26205.30093108  .00031706  00000-0  59102-3 0  9992","l2":"2 40362  97.0655 204.6802 0001121 247.3693 112.7440 15.48759837643447"},{"id":"40376","name":"SMAP","type":"PAYLOAD","l1":"1 40376U 15003A   26205.27624070  .00000413  00000-0  88867-4 0  9991","l2":"2 40376  98.1289 211.8475 0001641  91.7091 268.4299 14.63395272613042"},{"id":"40536","name":"KOMPSAT 3A","type":"PAYLOAD","l1":"1 40536U 15014A   26205.24518529  .00041356  00000-0  55728-3 0  9999","l2":"2 40536  97.6897 199.3719 0054722  43.6717 316.8847 15.55904044627574"},{"id":"40697","name":"SENTINEL 2A","type":"PAYLOAD","l1":"1 40697U 15028A   26205.27764888 -.00000064  00000-0 -79460-5 0  9990","l2":"2 40697  98.5670 279.6001 0001348  97.2957 262.8380 14.30815901579038"},{"id":"40701","name":"GAOFEN 8","type":"PAYLOAD","l1":"1 40701U 15030A   26205.29004288  .00020117  00000-0  39621-3 0  9994","l2":"2 40701  97.6901  40.9215 0009627  67.6333 292.5935 15.47221498617180"},{"id":"40718","name":"CARBONITE 1","type":"PAYLOAD","l1":"1 40718U 15032D   26205.27631652  .00001489  00000-0  18607-3 0  9995","l2":"2 40718  97.6534  21.7956 0014705 166.7215 193.4390 14.83689445594842"},{"id":"40878","name":"YAOGAN 27","type":"PAYLOAD","l1":"1 40878U 15040A   26205.27873632 -.00000274  00000-0 -60941-3 0  9998","l2":"2 40878 100.1182 190.0555 0008772 125.4594 234.7339 13.16071346522542"},{"id":"40894","name":"GAOFEN 9","type":"PAYLOAD","l1":"1 40894U 15047A   26205.30936648  .00001064  00000-0  13648-3 0  9992","l2":"2 40894  97.6267 239.3153 0027782  21.5174 338.7201 14.82949608585694"},{"id":"41026","name":"YAOGAN 28","type":"PAYLOAD","l1":"1 41026U 15064A   26205.33160498  .00009328  00000-0  34487-3 0  9999","l2":"2 41026  97.3112 342.8572 0011783  64.6578 295.5881 15.27856682596351"},{"id":"41038","name":"YAOGAN 29","type":"PAYLOAD","l1":"1 41038U 15069A   26205.35236884  .00000085  00000-0  17094-4 0  9999","l2":"2 41038  98.0026 234.0415 0000096 158.3397 201.7820 14.83110397576132"},{"id":"41167","name":"KENT RIDGE 1","type":"PAYLOAD","l1":"1 41167U 15077B   26204.63659344  .00004076  00000-0  13528-3 0  9992","l2":"2 41167  14.9811 354.8725 0008270  33.6031 326.4815 15.23320367586664"},{"id":"41194","name":"GAOFEN 4","type":"PAYLOAD","l1":"1 41194U 15083A   26205.27476466 -.00000330  00000-0  00000-0 0  9990","l2":"2 41194   0.4507  83.8424 0003659 121.9832 300.7713  1.00274204 38906"},{"id":"41240","name":"JASON 3","type":"PAYLOAD","l1":"1 41240U 16002A   26205.28429999 -.00000047  00000-0  61702-4 0  9999","l2":"2 41240  66.0416  47.8421 0008118 270.0647  89.9441 12.87629006492029"},{"id":"41335","name":"SENTINEL 3A","type":"PAYLOAD","l1":"1 41335U 16011A   26205.31524340  .00000069  00000-0  46650-4 0  9992","l2":"2 41335  98.6230 272.1618 0001284  86.8884 273.2443 14.26736261543353"},{"id":"41556","name":"ZY 3 2","type":"PAYLOAD","l1":"1 41556U 16033A   26205.28634132  .00007475  00000-0  33756-3 0  9998","l2":"2 41556  97.3822 280.3457 0013672 156.7498 203.4359 15.21176681563628"},{"id":"41599","name":"CARTOSAT 2C","type":"PAYLOAD","l1":"1 41599U 16040A   26204.48330542  .00004010  00000-0  19304-3 0  9997","l2":"2 41599  97.4464 263.9576 0008686  19.1280 341.0279 15.19310130559224"}]}