OBJECT_NAME,OBJECT_ID,EPOCH,MEAN_MOTION,ECCENTRICITY,INCLINATION,RA_OF_ASC_NODE,ARG_OF_PERICENTER,MEAN_ANOMALY,EPHEMERIS_TYPE,CLASSIFICATION_TYPE,NORAD_CAT_ID,ELEMENT_SET_NO,REV_AT_EPOCH,BSTAR,MEAN_MOTION_DOT,MEAN_MOTION_DDOT
ALOS-2,2014-029A,2026-07-24T06:28:14.055168,14.79475356,.0001596,97.9223,301.9035,94.6883,265.4511,0,U,39766,999,65706,.12914177E-3,.913E-5,0
KAZEOSAT 2,2014-033A,2026-07-24T06:39:56.286720,14.85506120,.00080973,97.5402,42.9279,186.6091,173.5019,0,U,40010,999,65446,-.4978001E-5,-.93E-6,0
HODOYOSHI-4,2014-033B,2026-07-24T06:49:09.681312,14.88208025,.00234769,97.5471,28.3196,178.5545,181.5745,0,U,40011,999,65432,.1720134E-3,.1542E-4,0
DEIMOS-2,2014-033D,2026-07-24T07:02:38.848416,14.93814485,.00014804,97.5786,78.4710,104.0521,256.0864,0,U,40013,999,64326,.75377156E-4,.745E-5,0
HODOYOSHI-3,2014-033F,2026-07-23T23:09:24.549408,14.85452127,.00316269,97.6455,6.5344,231.7763,128.0605,0,U,40015,999,65308,.1370846E-3,.1139E-4,0
SPOT 7,2014-034A,2026-07-24T07:15:14.201280,14.60987046,.00016988,98.0610,266.8338,94.2337,265.9058,0,U,40053,999,64255,.10859416E-3,.487E-5,0
SKYSAT-B,2014-037D,2026-07-23T20:08:25.734336,14.88108065,.00061497,98.3859,165.9005,146.8472,213.3130,0,U,40072,999,65141,.13790316E-3,.1208E-4,0
WORLDVIEW-3 (WV-3),2014-048A,2026-07-24T07:02:14.417952,14.85075539,.00019334,97.8550,279.6115,141.4533,218.6820,0,U,40115,999,64741,.96826119E-4,.774E-5,0
GAOFEN-2,2014-049A,2026-07-24T08:06:50.493888,14.80938217,.00087153,98.0090,269.5061,109.4182,250.7973,0,U,40118,999,64473,.16435783E-3,.1218E-4,0
YAOGAN-21,2014-053A,2026-07-24T07:51:08.518752,15.26852617,.00066343,97.1461,243.9767,333.8440,26.2464,0,U,40143,999,66062,.31310626E-3,.8197E-4,0
YAOGAN-22,2014-063A,2026-07-24T07:09:58.114656,13.15531868,.00069139,100.7774,357.1959,106.5539,253.6332,0,U,40275,999,56469,.12536937E-3,0,0
ASNARO,2014-070A,2026-07-24T07:09:26.572608,15.19481148,.00043999,97.3436,280.4115,67.0938,293.0761,0,U,40298,999,64964,.36671868E-3,.7718E-4,0
YAOGAN-24,2014-072A,2026-07-24T07:06:34.771392,14.76128744,.00153143,98.1533,342.9525,141.5498,218.6806,0,U,40310,999,62919,.14607599E-3,.957E-5,0
CBERS 4,2014-079A,2026-07-24T07:51:47.206944,14.35518366,.00005582,98.3514,260.9897,80.9022,279.2227,0,U,40336,999,60928,.92568406E-4,.224E-5,0
YAOGAN-26,2014-088A,2026-07-24T07:13:20.445312,15.48759837,.00011208,97.0655,204.6802,247.3693,112.7440,0,U,40362,999,64344,.59101865E-3,.31706E-3,0
SMAP,2015-003A,2026-07-24T06:37:47.196480,14.63395272,.00016408,98.1289,211.8475,91.7091,268.4299,0,U,40376,999,61304,.88867381E-4,.413E-5,0
KOMPSAT-3A,2015-014A,2026-07-24T05:53:04.009056,15.55904044,.00547216,97.6897,199.3719,43.6717,316.8847,0,U,40536,999,62757,.55728262E-3,.41356E-3,0
SENTINEL-2A,2015-028A,2026-07-24T06:39:48.863232,14.30815901,.00013479,98.5670,279.6001,97.2957,262.8380,0,U,40697,999,57903,-.7945961E-5,-.64E-6,0
GAOFEN-8,2015-030A,2026-07-24T06:57:39.704832,15.47221498,.00096269,97.6901,40.9215,67.6333,292.5935,0,U,40701,999,61718,.39621264E-3,.20117E-3,0
CARBONITE 1 (CBNT-1),2015-032D,2026-07-24T06:37:53.747328,14.83689445,.00147052,97.6534,21.7956,166.7215,193.4390,0,U,40718,999,59484,.18606576E-3,.1489E-4,0
YAOGAN-27,2015-040A,2026-07-24T06:41:22.818048,13.16071346,.00087721,100.1182,190.0555,125.4594,234.7339,0,U,40878,999,52254,-.609412E-3,-.274E-5,0
GAOFEN-9 01,2015-047A,2026-07-24T07:25:29.263872,14.82949608,.00277821,97.6267,239.3153,21.5174,338.7201,0,U,40894,999,58569,.13648269E-3,.1064E-4,0
YAOGAN-28,2015-064A,2026-07-24T07:57:30.670272,15.27856682,.00117829,97.3112,342.8572,64.6578,295.5881,0,U,41026,999,59635,.34487482E-3,.9328E-4,0
YAOGAN-29,2015-069A,2026-07-24T08:27:24.667776,14.83110397,.00000961,98.0026,234.0415,158.3397,201.7820,0,U,41038,999,57613,.17094053E-4,.85E-6,0
KENT RIDGE 1,2015-077B,2026-07-23T15:16:41.673216,15.23320367,.000827,14.9811,354.8725,33.6031,326.4815,0,U,41167,999,58666,.13528E-3,.4076E-4,0
GAOFEN-4,2015-083A,2026-07-24T06:35:39.666624,1.00274204,.00036585,0.4507,83.8424,121.9832,300.7713,0,U,41194,999,3890,0,-.33E-5,0
JASON-3,2016-002A,2026-07-24T06:49:23.519136,12.87629006,.00081181,66.0416,47.8421,270.0647,89.9441,0,U,41240,999,49202,.61702097E-4,-.47E-6,0
SENTINEL-3A,2016-011A,2026-07-24T07:33:57.029760,14.26736261,.00012837,98.6230,272.1618,86.8884,273.2443,0,U,41335,999,54335,.46649779E-4,.69E-6,0
ZIYUAN 3-02 (ZY 3-02),2016-033A,2026-07-24T06:52:19.890048,15.21176681,.00136717,97.3822,280.3457,156.7498,203.4359,0,U,41556,999,56362,.33755537E-3,.7475E-4,0
CARTOSAT-2C,2016-040A,2026-07-23T11:35:57.588288,15.19310130,.0008686,97.4464,263.9576,19.1280,341.0279,0,U,41599,999,55922,.19304E-3,.401E-4,0
